[{"OBJECT_NAME":"TIANMU-1 22","OBJECT_ID":"2023-208D","EPOCH":"2026-03-09T22:39:05.738688","MEAN_MOTION":15.29457749,"ECCENTRICITY":0.00031332,"INCLINATION":97.4379,"RA_OF_ASC_NODE":184.9419,"ARG_OF_PERICENTER":351.9312,"MEAN_ANOMALY":8.1877,"EPHEMERIS_TYPE":0,"CLASSIFICATION_TYPE":"U","NORAD_CAT_ID":58663,"ELEMENT_SET_NO":999,"REV_AT_EPOCH":12215,"BSTAR":0.00038239675,"MEAN_MOTION_DOT":0.00010851,"MEAN_MOTION_DDOT":0},{"OBJECT_NAME":"STARLINK-32100","OBJECT_ID":"2024-086E","EPOCH":"2026-03-09T00:04:30.461376","MEAN_MOTION":15.27577555,"ECCENTRICITY":9.624e-5,"INCLINATION":43.0022,"RA_OF_ASC_NODE":45.6665,"ARG_OF_PERICENTER":250.5118,"MEAN_ANOMALY":109.563,"EPHEMERIS_TYPE":0,"CLASSIFICATION_TYPE":"U","NORAD_CAT_ID":59686,"ELEMENT_SET_NO":999,"REV_AT_EPOCH":10421,"BSTAR":6.373714e-6,"MEAN_MOTION_DOT":-8.7e-7,"MEAN_MOTION_DDOT":0}]
